{
  "name": "SATGUS",
  "line1": "1 62713U 25009DJ  25326.22434372  .00009322  00000+0  79804-3 0  9996",
  "line2": "2 62713  97.7231  44.5700 0003186 107.8226 252.3344 14.97793478 46545",
  "fetched_at": "2025-11-23T00:21:24.859490+00:00"
}